[{"OBJECT_NAME":"GEESAT-1 05","OBJECT_ID":"2022-058E","EPOCH":"2026-03-09T23:16:32.924064","MEAN_MOTION":14.9973595,"ECCENTRICITY":0.00033659,"INCLINATION":49.9868,"RA_OF_ASC_NODE":292.6549,"ARG_OF_PERICENTER":123.1289,"MEAN_ANOMALY":236.998,"EPHEMERIS_TYPE":0,"CLASSIFICATION_TYPE":"U","NORAD_CAT_ID":52789,"ELEMENT_SET_NO":999,"REV_AT_EPOCH":20531,"BSTAR":0.00050752064,"MEAN_MOTION_DOT":6.088e-5,"MEAN_MOTION_DDOT":0},{"OBJECT_NAME":"STARLINK-5991","OBJECT_ID":"2023-058Q","EPOCH":"2026-03-09T23:40:13.159488","MEAN_MOTION":15.01258137,"ECCENTRICITY":0.00016782,"INCLINATION":97.6036,"RA_OF_ASC_NODE":70.4805,"ARG_OF_PERICENTER":92.4782,"MEAN_ANOMALY":267.6635,"EPHEMERIS_TYPE":0,"CLASSIFICATION_TYPE":"U","NORAD_CAT_ID":56331,"ELEMENT_SET_NO":999,"REV_AT_EPOCH":15817,"BSTAR":-8.5881e-6,"MEAN_MOTION_DOT":-1.69e-6,"MEAN_MOTION_DDOT":0}]
